OBJECT_NAME,OBJECT_ID,EPOCH,MEAN_MOTION,ECCENTRICITY,INCLINATION,RA_OF_ASC_NODE,ARG_OF_PERICENTER,MEAN_ANOMALY,EPHEMERIS_TYPE,CLASSIFICATION_TYPE,NORAD_CAT_ID,ELEMENT_SET_NO,REV_AT_EPOCH,BSTAR,MEAN_MOTION_DOT,MEAN_MOTION_DDOT
LEMUR-2-LAILA,2025-276DQ,2026-06-13T22:22:13.380384,15.21239902,.00020469,97.4181,238.8676,140.7271,219.4113,0,U,66776,999,2995,.27898523E-3,.6162E-4,0
LEMUR-2-CELIJO-SB-PK,2025-276DW,2026-06-13T18:25:35.112864,14.99942159,.00089473,97.5273,235.6566,140.8637,219.3236,0,U,66781,999,2211,.62575469E-3,.7723E-4,0
LEMUR-2-FINNIAN,2025-276DX,2026-06-13T22:41:51.751104,15.00341037,.0008827,97.5282,236.0399,98.9757,261.2466,0,U,66782,999,1951,.58490456E-3,.729E-4,0
LEMUR-2-STARLIGHT,2025-276DY,2026-06-13T16:46:27.624576,14.99009928,.00152542,97.5279,235.4566,137.6060,222.6345,0,U,66783,999,2967,.46502135E-3,.5593E-4,0
LEMUR-2-TARTIFLETTE,2025-276DZ,2026-06-13T10:19:52.810176,14.99037382,.00139776,97.5281,235.2038,144.3109,215.9052,0,U,66784,999,2963,.50274178E-3,.6054E-4,0
LEMUR-2-VUKASIN,2025-276EA,2026-06-13T16:39:34.496928,15.00333340,.00062683,97.5317,235.7458,132.2421,227.9336,0,U,66785,999,2962,.5036576E-3,.6265E-4,0
LEMUR-2-HOTSPUR-TOM,2025-276EB,2026-06-13T18:09:25.250400,14.98924259,.00155425,97.5271,235.5002,137.7869,222.4554,0,U,66786,999,2961,.58063128E-3,.6985E-4,0
LEMUR-2-MYRA,2025-276EC,2026-06-13T22:12:36.529056,15.00201509,.00161995,97.5225,235.9133,152.2480,207.9611,0,U,66787,999,2972,.60660375E-3,.755E-4,0
LEMUR-2 FIKRETDENGIZ,2026-004A,2026-06-13T21:46:22.491264,14.88303860,.00097719,97.8008,163.5158,142.2914,217.8990,0,U,67363,999,2279,.38633299E-3,.3521E-4,0
TWILIGHT-1 OBJECT B,2026-004B,2026-06-13T22:19:38.211168,14.87692301,.00097554,97.8061,163.5551,133.5529,226.6499,0,U,67364,999,2280,.19428002E-3,.1716E-4,0
LEMUR-2-MARIO-SOUSA,2026-004C,2026-06-13T19:46:34.858848,14.88490837,.00094168,97.7984,163.4301,142.8433,217.3437,0,U,67365,999,2279,.50112895E-3,.4605E-4,0
LEMUR-2-SONNENBLUME,2026-004E,2026-06-13T22:57:15.830208,14.88301780,.00089396,97.7979,163.5463,144.4357,215.7457,0,U,67367,999,2281,.31801206E-3,.2888E-4,0
LEMUR-2-WOBLER,2026-004F,2026-06-13T22:48:30.475008,14.88497836,.00093844,97.8033,163.6593,134.4094,225.7893,0,U,67368,999,2281,.4447448E-3,.4081E-4,0
LEMUR-2-GRAM-E-SUE,2026-004H,2026-06-13T22:34:54.364800,14.88458695,.00080006,97.7966,163.5458,145.0442,215.1302,0,U,67370,999,2281,.30038533E-3,.2735E-4,0
LEMUR-2-KATIE,2026-004AA,2026-06-13T22:21:31.146336,14.90029078,.00047891,97.8027,163.9854,100.4578,259.7180,0,U,67387,999,2282,.39062492E-3,.3715E-4,0
LEMUR-2-HCS-BAZUS,2026-004AB,2026-06-13T22:20:13.239456,14.90040446,.0004345,97.8013,163.9655,96.5184,263.6528,0,U,67388,999,2282,.54799507E-3,.5237E-4,0
