LEMUR-2-LAILA           
1 66776U 25276DQ  26164.93209931  .00006162  00000+0  27899-3 0  9991
2 66776  97.4181 238.8676 0002046 140.7271 219.4113 15.21239902 29958
LEMUR-2-CELIJO-SB-PK    
1 66781U 25276DW  26164.76776751  .00007723  00000+0  62575-3 0  9991
2 66781  97.5273 235.6566 0008947 140.8637 219.3236 14.99942159 22118
LEMUR-2-FINNIAN         
1 66782U 25276DX  26164.94573786  .00007290  00000+0  58490-3 0  9995
2 66782  97.5282 236.0399 0008827  98.9757 261.2466 15.00341037 19513
LEMUR-2-STARLIGHT       
1 66783U 25276DY  26164.69893084  .00005593  00000+0  46502-3 0  9999
2 66783  97.5279 235.4566 0015254 137.6060 222.6345 14.99009928 29671
LEMUR-2-TARTIFLETTE     
1 66784U 25276DZ  26164.43047234  .00006054  00000+0  50274-3 0  9994
2 66784  97.5281 235.2038 0013977 144.3109 215.9052 14.99037382 29637
LEMUR-2-VUKASIN         
1 66785U 25276EA  26164.69414927  .00006265  00000+0  50366-3 0  9996
2 66785  97.5317 235.7458 0006268 132.2421 227.9336 15.00333340 29620
LEMUR-2-HOTSPUR-TOM     
1 66786U 25276EB  26164.75654225  .00006985  00000+0  58063-3 0  9992
2 66786  97.5271 235.5002 0015542 137.7869 222.4554 14.98924259 29616
LEMUR-2-MYRA            
1 66787U 25276EC  26164.92542279  .00007550  00000+0  60660-3 0  9992
2 66787  97.5225 235.9133 0016199 152.2480 207.9611 15.00201509 29729
LEMUR-2 FIKRETDENGIZ    
1 67363U 26004A   26164.90720476  .00003521  00000+0  38633-3 0  9997
2 67363  97.8008 163.5158 0009771 142.2914 217.8990 14.88303860 22792
TWILIGHT-1 OBJECT B     
1 67364U 26004B   26164.93030337  .00001716  00000+0  19428-3 0  9996
2 67364  97.8061 163.5551 0009755 133.5529 226.6499 14.87692301 22800
LEMUR-2-MARIO-SOUSA     
1 67365U 26004C   26164.82401457  .00004605  00000+0  50113-3 0  9996
2 67365  97.7984 163.4301 0009416 142.8433 217.3437 14.88490837 22795
LEMUR-2-SONNENBLUME     
1 67367U 26004E   26164.95643322  .00002888  00000+0  31801-3 0  9995
2 67367  97.7979 163.5463 0008939 144.4357 215.7457 14.88301780 22818
LEMUR-2-WOBLER          
1 67368U 26004F   26164.95035272  .00004081  00000+0  44474-3 0  9992
2 67368  97.8033 163.6593 0009384 134.4094 225.7893 14.88497836 22811
LEMUR-2-GRAM-E-SUE      
1 67370U 26004H   26164.94090700  .00002735  00000+0  30039-3 0  9997
2 67370  97.7966 163.5458 0008000 145.0442 215.1302 14.88458695 22814
LEMUR-2-KATIE           
1 67387U 26004AA  26164.93161049  .00003715  00000+0  39062-3 0  9993
2 67387  97.8027 163.9854 0004789 100.4578 259.7180 14.90029078 22821
LEMUR-2-HCS-BAZUS       
1 67388U 26004AB  26164.93070879  .00005237  00000+0  54800-3 0  9992
2 67388  97.8013 163.9655 0004345  96.5184 263.6528 14.90040446 22824
